NORAD_CAT_ID,OBJECT_NAME,OBJECT_TYPE,EPOCH,MEAN_MOTION,ECCENTRICITY,INCLINATION,RA_OF_ASC_NODE,ARG_OF_PERICENTER,MEAN_ANOMALY,BSTAR,MEAN_MOTION_DOT,MEAN_MOTION_DDOT,TLE_LINE0,TLE_LINE1,TLE_LINE2,SEMIMAJOR_AXIS,PERIOD,APOGEE,PERIGEE,DECAYED
53433.0,STARLINK-4549,PAYLOAD,2022-11-01 00:00:02,15.23165377,0.0001245,53.2171,202.2508,103.0732,237.3337,-0.052062,-0.01149579,0.0,0 STARLINK-4549,1 53433U 22097AX  22305.00002315 -.01149579  00000-0 -52062-1 0  9995,2 53433  53.2171 202.2508 0001245 103.0732 237.3337 15.23165377 13413,6874.437,94.54,497.158,495.446,0.0
53433.0,STARLINK-4549,PAYLOAD,2022-11-01 14:00:01,15.21739574,0.0001250999999999,53.2173,199.5749,100.7031,198.5464,-0.054138,-0.0114611,0.0,0 STARLINK-4549,1 53433U 22097AX  22305.58334491 -.01146110  00000-0 -54138-1 0  9995,2 53433  53.2173 199.5749 0001251 100.7031 198.5464 15.21739574  1301,6878.73,94.629,501.456,499.735,0.0
53433.0,STARLINK-4549,PAYLOAD,2022-11-01 22:00:00,15.20937048,0.000135,53.2168,198.051,107.4582,218.386,-0.056271,-0.01162059,0.0,0 STARLINK-4549,1 53433U 22097AX  22305.91667824 -.01162059  00000-0 -56271-1 0  9991,2 53433  53.2168 198.0510 0001350 107.4582 218.3860 15.20937048 13556,6881.15,94.678,503.944,502.086,0.0
53433.0,STARLINK-4549,PAYLOAD,2022-11-02 14:00:01,15.19297447,0.0001202,53.2172,195.0043,109.8989,266.2198,-0.058088,-0.01144682,0.0,0 STARLINK-4549,1 53433U 22097AX  22306.58334491 -.01144682  00000-0 -58088-1 0  9996,2 53433  53.2172 195.0043 0001202 109.8989 266.2198 15.19297447  1308,6886.1,94.781,508.792,507.137,0.0
53433.0,STARLINK-4549,PAYLOAD,2022-11-02 22:00:00,15.18486532,0.0001196,53.2174,193.486,88.9166,310.8672,-0.0597,-0.01148668,0.0,0 STARLINK-4549,1 53433U 22097AX  22306.91667824 -.01148668  00000-0 -59700-1 0  9992,2 53433  53.2174 193.4860 0001196  88.9166 310.8672 15.18486532 13709,6888.551,94.831,511.24,509.592,0.0
53433.0,STARLINK-4549,PAYLOAD,2022-11-03 14:00:01,15.168581,0.0001249,53.2172,190.451,86.6592,357.5269,-0.062521,-0.01147711,0.0,0 STARLINK-4549,1 53433U 22097AX  22307.58334491 -.01147711  00000-0 -62521-1 0  9990,2 53433  53.2172 190.4510 0001249  86.6592 357.5269 15.16858100  1308,6893.48,94.933,516.206,514.484,0.0
53433.0,STARLINK-4549,PAYLOAD,2022-11-03 22:00:00,15.16044803,0.000133,53.2174,188.9383,80.9536,23.9651,-0.064015,-0.01148003,0.0,0 STARLINK-4549,1 53433U 22097AX  22307.91667824 -.01148003  00000-0 -64015-1 0  9991,2 53433  53.2174 188.9383 0001330  80.9536  23.9651 15.16044803 13855,6895.945,94.984,518.7280000000002,516.893,0.0
53433.0,STARLINK-4549,PAYLOAD,2022-11-04 00:00:00,15.15841139,0.0001457,53.2174,188.5603,85.801,114.1481,-0.064356,-0.01147477,0.0,0 STARLINK-4549,1 53433U 22097AX  22308.00001157 -.01147477  00000-0 -64356-1 0  9995,2 53433  53.2174 188.5603 0001457  85.8010 114.1481 15.15841139  1304,6896.563,94.997,519.433,517.423,0.0
53433.0,STARLINK-4549,PAYLOAD,2022-11-04 14:00:01,15.14417359,0.000137,53.2174,185.9142,86.7962,56.6574,-0.067083,-0.01148432,0.0,0 STARLINK-4549,1 53433U 22097AX  22308.58334491 -.01148432  00000-0 -67083-1 0  9990,2 53433  53.2174 185.9142 0001370  86.7962  56.6574 15.14417359  1308,6900.885,95.086,523.695,521.805,0.0
53433.0,STARLINK-4549,PAYLOAD,2022-11-04 22:00:01,15.13613301,0.0001394,53.2171,184.4077,103.8714,57.4395,-0.069479,-0.01161554,0.0,0 STARLINK-4549,1 53433U 22097AX  22308.91668981 -.01161554  00000-0 -69479-1 0  9992,2 53433  53.2171 184.4077 0001394 103.8714  57.4395 15.13613301 14003,6903.329000000002,95.137,526.156,524.231,0.0
53433.0,STARLINK-4549,PAYLOAD,2022-11-05 00:00:00,15.13399323,0.0001393,53.2174,184.0311,108.4049,147.145,-0.068911,-0.01146385,0.0,0 STARLINK-4549,1 53433U 22097AX  22309.00001157 -.01146385  00000-0 -68911-1 0  9994,2 53433  53.2174 184.0311 0001393 108.4049 147.1450 15.13399323  1307,6903.979,95.15,526.806,524.883,0.0
53433.0,STARLINK-4549,PAYLOAD,2022-11-05 14:00:01,15.11978832,0.000135,53.2171,181.3954,91.3417,102.6399,-0.072114,-0.01152189,0.0,0 STARLINK-4549,1 53433U 22097AX  22309.58335648 -.01152189  00000-0 -72114-1 0  9991,2 53433  53.2171 181.3954 0001350  91.3417 102.6399 15.11978832  1303,6908.303000000001,95.239,531.1,529.235,0.0
53433.0,STARLINK-4549,PAYLOAD,2022-11-05 22:00:01,15.11139747,0.0001434,53.2171,179.8941,106.0402,102.8207,-0.071477,-0.01118328,0.0,0 STARLINK-4549,1 53433U 22097AX  22309.91668981 -.01118328  00000-0 -71477-1 0  9995,2 53433  53.2171 179.8941 0001434 106.0402 102.8207 15.11139747 14153,6910.86,95.292,533.716,531.734,0.0
53433.0,STARLINK-4549,PAYLOAD,2022-11-06 14:00:01,15.09435449,0.0001298,53.2167,176.8931,85.8779,149.7091,-0.046219,-0.00697501,0.0,0 STARLINK-4549,1 53433U 22097AX  22310.58334491 -.00697501  00000-0 -46219-1 0  9996,2 53433  53.2167 176.8931 0001298  85.8779 149.7091 15.09435449  1302,6916.061,95.4,538.8240000000002,537.028,0.0
53433.0,STARLINK-4549,PAYLOAD,2022-11-07 00:00:00,15.08871423,0.0001459,53.2158,175.0249,105.7756,234.6366,0.003405,0.00054368,0.0,0 STARLINK-4549,1 53433U 22097AX  22311.00001157  .00054368  00000-0  34050-2 0  9991,2 53433  53.2158 175.0249 0001459 105.7756 234.6366 15.08871423 14321,6917.784000000002,95.436,540.659,538.64,0.0
53433.0,STARLINK-4549,PAYLOAD,2022-11-07 08:00:01,15.08878846,0.0001354,53.2126,173.5288,100.5115,251.5283,-0.00088824,-0.00014411,0.0,0 STARLINK-4549,1 53433U 22097AX  22311.33334491 -.00014411  00000-0 -88824-3 0  9993,2 53433  53.2126 173.5288 0001354 100.5115 251.5283 15.08878846 14375,6917.762,95.435,540.563,538.69,0.0
53433.0,STARLINK-4549,PAYLOAD,2022-11-07 22:00:00,15.08834615,0.0001551,53.2125,170.9109,95.0003,187.4146,-9.2523e-05,-1.76e-05,0.0,0 STARLINK-4549,1 53433U 22097AX  22311.91667824 -.00001760  00000-0 -92523-4 0  9991,2 53433  53.2125 170.9109 0001551  95.0003 187.4146 15.08834615  1300,6917.897,95.438,540.835,538.689,0.0
53433.0,STARLINK-4549,PAYLOAD,2022-11-08 10:00:01,15.08822398,0.0001541,53.2139,168.6647,106.447,13.3987,0.0016319,0.00025767,0.0,0 STARLINK-4549,1 53433U 22097AX  22312.41668981  .00025767  00000-0  16319-2 0  9990,2 53433  53.2139 168.6647 0001541 106.4470  13.3987 15.08822398 14534,6917.934,95.439,540.865,538.7330000000002,0.0
53433.0,STARLINK-4549,PAYLOAD,2022-11-08 14:00:01,15.08836807,0.0001605,53.2139,167.9161,108.0893,197.4773,-0.00063831,-0.00010432,0.0,0 STARLINK-4549,1 53433U 22097AX  22312.58334491 -.00010432  00000-0 -63831-3 0  9991,2 53433  53.2139 167.9161 0001605 108.0893 197.4773 15.08836807  1303,6917.89,95.438,540.865,538.645,0.0
53433.0,STARLINK-4549,PAYLOAD,2022-11-08 22:00:00,15.0881338,0.0001516,53.2138,166.4215,98.9127,218.2463,0.0010515,0.00016474,0.0,0 STARLINK-4549,1 53433U 22097AX  22312.91667824  .00016474  00000-0  10515-2 0  9997,2 53433  53.2138 166.4215 0001516  98.9127 218.2463 15.08813380 14611,6917.962,95.439,540.876,538.778,0.0
53433.0,STARLINK-4549,PAYLOAD,2022-11-09 14:00:01,15.08832498,0.0001460999999999,53.2139,163.4267,107.6869,232.6252,-0.00039718,-6.602e-05,0.0,0 STARLINK-4549,1 53433U 22097AX  22313.58334491 -.00006602  00000-0 -39718-3 0  9993,2 53433  53.2139 163.4267 0001461 107.6869 232.6252 15.08832498  1305,6917.903,95.438,540.779,538.758,0.0
53433.0,STARLINK-4549,PAYLOAD,2022-11-09 22:00:01,15.0881006,0.0001395999999999,53.2139,161.93200000000004,97.3834,254.5747,0.00084503,0.00013175,0.0,0 STARLINK-4549,1 53433U 22097AX  22313.91668981  .00013175  00000-0  84503-3 0  9997,2 53433  53.2139 161.9320 0001396  97.3834 254.5747 15.08810060 14769,6917.972,95.439,540.803,538.871,0.0
53433.0,STARLINK-4549,PAYLOAD,2022-11-10 00:00:00,15.08796058,0.0001345,53.2139,161.5582,96.5875,348.2033,0.0030792,0.00048999,0.0,0 STARLINK-4549,1 53433U 22097AX  22314.00001157  .00048999  00000-0  30792-2 0  9996,2 53433  53.2139 161.5582 0001345  96.5875 348.2033 15.08796058  1300,6918.015,95.44,540.81,538.9490000000002,0.0
53433.0,STARLINK-4549,PAYLOAD,2022-11-10 14:00:01,15.08825247,0.0001419,53.2142,158.9374,106.3043,268.7293,0.0014175,0.00022334,0.0,0 STARLINK-4549,1 53433U 22097AX  22314.58334491  .00022334  00000-0  14175-2 0  9991,2 53433  53.2142 158.9374 0001419 106.3043 268.7293 15.08825247  1309,6917.925,95.438,540.7719999999998,538.809,0.0
53433.0,STARLINK-4549,PAYLOAD,2022-11-10 22:00:00,15.08825152,0.0001399,53.2143,157.4427,95.7384,290.8843,0.00096942,0.00015168,0.0,0 STARLINK-4549,1 53433U 22097AX  22314.91667824  .00015168  00000-0  96942-3 0  9997,2 53433  53.2143 157.4427 0001399  95.7384 290.8843 15.08825152  1301,6917.926,95.438,540.759,538.823,0.0
53433.0,STARLINK-4549,PAYLOAD,2022-11-11 08:00:01,15.08834369,0.0001329,53.2145,155.5707,103.8196,27.2911,0.00075202,0.00011699,0.0,0 STARLINK-4549,1 53433U 22097AX  22315.33334491  .00011699  00000-0  75202-3 0  9996,2 53433  53.2145 155.5707 0001329 103.8196  27.2911 15.08834369 14973,6917.898,95.438,540.682,538.8430000000002,0.0
53433.0,STARLINK-4549,PAYLOAD,2022-11-11 14:00:01,15.08844876,0.0001412,53.2147,154.4481,105.6977,304.1025,0.00086139,0.00013449,0.0,0 STARLINK-4549,1 53433U 22097AX  22315.58334491  .00013449  00000-0  86139-3 0  9999,2 53433  53.2147 154.4481 0001412 105.6977 304.1025 15.08844876  1302,6917.865,95.437,540.707,538.754,0.0
53433.0,STARLINK-4549,PAYLOAD,2022-11-11 22:00:00,15.08840113,0.0001375,53.2147,152.9534,95.5251,325.8869,0.0013803,0.00021748,0.0,0 STARLINK-4549,1 53433U 22097AX  22315.91667824  .00021748  00000-0  13803-2 0  9993,2 53433  53.2147 152.9534 0001375  95.5251 325.8869 15.08840113  1300,6917.88,95.438,540.696,538.794,0.0
53433.0,STARLINK-4549,PAYLOAD,2022-11-12 14:00:01,15.08871434,0.0001448,53.215,149.9588,105.5803,339.052,-0.002213,-0.00035365,0.0,0 STARLINK-4549,1 53433U 22097AX  22316.58334491 -.00035365  00000-0 -22130-2 0  9993,2 53433  53.2150 149.9588 0001448 105.5803 339.0520 15.08871434 15165,6917.784000000002,95.436,540.651,538.648,0.0
